HULIANWANG DIGUI 13D    
1 66415U 25258D   25339.82745124  .00000574  00000+0  32301-3 0  9996
2 66415  50.0049 291.0607 0013631 339.9094  20.1281 14.23026723  3678
HULIANWANG DIGUI 13E    
1 66416U 25258E   25339.90230921  .00000714  00000+0  39076-3 0  9992
2 66416  50.0052 290.7863 0011195 340.1554  19.8921 14.22215324  3684
HULIANWANG DIGUI 13F    
1 66417U 25258F   25339.97103066  .00000612  00000+0  34167-3 0  9992
2 66417  50.0003 290.4680 0012438 340.0345  20.0080 14.22738781  3691
HULIANWANG DIGUI 13G    
1 66418U 25258G   25339.89629562  .00000560  00000+0  31844-3 0  9999
2 66418  50.0022 290.7431 0011665 336.1209  23.9161 14.22784746  3689
HULIANWANG DIGUI 13H    
1 66419U 25258H   25339.61378765  .00000146  00000+0  13378-3 0  9998
2 66419  50.0017 291.9103 0012058 334.7106  25.3215 14.23328519  3645
HULIANWANG DIGUI 13J    
1 66420U 25258J   25339.96364633  .00000536  00000+0  30679-3 0  9993
2 66420  50.0158 290.4806 0013322 343.9613  16.0876 14.22956918  3680
CZ-12 R/B               
1 66421U 25258K   25339.93010276  .00000199  00000+0  10836-3 0  9990
2 66421  49.9962 287.4969 0064542 224.9278 134.6409 14.42319090  3733
STARLINK-35617          
1 66422U 25259A   25339.91670139 -.00194638  00000+0 -47492-2 0  9991
2 66422  43.0009  87.4240 0001509 310.8309 263.7811 15.40842513  5187
STARLINK-35618          
1 66423U 25259B   25339.91670139  .00031518  00000+0  75941-3 0  9998
2 66423  43.0009  87.3930 0001642 285.5668 301.6089 15.40669676  5183
STARLINK-35588          
1 66424U 25259C   25339.91670139 -.00098492  00000+0 -23783-2 0  9991
2 66424  43.0007  87.3627 0001604 281.4025 318.2115 15.40733840  5184
STARLINK-35555          
1 66425U 25259D   25339.91670139  .00035428  00000+0  85255-3 0  9993
2 66425  43.0009  87.3302 0002068 290.1661 321.9078 15.40659268  5185
STARLINK-35589          
1 66426U 25259E   25339.91670139 -.01805234  00000+0 -45955-1 0  9998
2 66426  43.0006  87.3042 0001331 277.0086 346.8250 15.41970193  5183
