CCSDS_OMM_VERS = 2.0
CREATION_DATE  = 
ORIGINATOR     = 

OBJECT_NAME    = HULIANWANG DIGUI 13D
OBJECT_ID      = 2025-258D
CENTER_NAME    = EARTH
REF_FRAME      = TEME
TIME_SYSTEM    = UTC
MEAN_ELEMENT_THEORY = SGP/SGP4

EPOCH          = 2025-12-05T19:51:31.787136
MEAN_MOTION    = 14.23026723
ECCENTRICITY   = .00136315
INCLINATION    = 50.0049
RA_OF_ASC_NODE = 291.0607
ARG_OF_PERICENTER = 339.9094
MEAN_ANOMALY   = 20.1281

EPHEMERIS_TYPE = 0
CLASSIFICATION_TYPE = U
NORAD_CAT_ID   = 66415
ELEMENT_SET_NO = 999
REV_AT_EPOCH   = 367
BSTAR          = .32301441E-3
MEAN_MOTION_DOT = .574E-5
MEAN_MOTION_DDOT = 0

CCSDS_OMM_VERS = 2.0
CREATION_DATE  = 
ORIGINATOR     = 

OBJECT_NAME    = HULIANWANG DIGUI 13E
OBJECT_ID      = 2025-258E
CENTER_NAME    = EARTH
REF_FRAME      = TEME
TIME_SYSTEM    = UTC
MEAN_ELEMENT_THEORY = SGP/SGP4

EPOCH          = 2025-12-05T21:39:19.515744
MEAN_MOTION    = 14.22215324
ECCENTRICITY   = .00111953
INCLINATION    = 50.0052
RA_OF_ASC_NODE = 290.7863
ARG_OF_PERICENTER = 340.1554
MEAN_ANOMALY   = 19.8921

EPHEMERIS_TYPE = 0
CLASSIFICATION_TYPE = U
NORAD_CAT_ID   = 66416
ELEMENT_SET_NO = 999
REV_AT_EPOCH   = 368
BSTAR          = .39075783E-3
MEAN_MOTION_DOT = .714E-5
MEAN_MOTION_DDOT = 0

CCSDS_OMM_VERS = 2.0
CREATION_DATE  = 
ORIGINATOR     = 

OBJECT_NAME    = HULIANWANG DIGUI 13F
OBJECT_ID      = 2025-258F
CENTER_NAME    = EARTH
REF_FRAME      = TEME
TIME_SYSTEM    = UTC
MEAN_ELEMENT_THEORY = SGP/SGP4

EPOCH          = 2025-12-05T23:18:17.049024
MEAN_MOTION    = 14.22738781
ECCENTRICITY   = .00124384
INCLINATION    = 50.0003
RA_OF_ASC_NODE = 290.4680
ARG_OF_PERICENTER = 340.0345
MEAN_ANOMALY   = 20.0080

EPHEMERIS_TYPE = 0
CLASSIFICATION_TYPE = U
NORAD_CAT_ID   = 66417
ELEMENT_SET_NO = 999
REV_AT_EPOCH   = 369
BSTAR          = .34167411E-3
MEAN_MOTION_DOT = .612E-5
MEAN_MOTION_DDOT = 0

CCSDS_OMM_VERS = 2.0
CREATION_DATE  = 
ORIGINATOR     = 

OBJECT_NAME    = HULIANWANG DIGUI 13G
OBJECT_ID      = 2025-258G
CENTER_NAME    = EARTH
REF_FRAME      = TEME
TIME_SYSTEM    = UTC
MEAN_ELEMENT_THEORY = SGP/SGP4

EPOCH          = 2025-12-05T21:30:39.941568
MEAN_MOTION    = 14.22784746
ECCENTRICITY   = .00116654
INCLINATION    = 50.0022
RA_OF_ASC_NODE = 290.7431
ARG_OF_PERICENTER = 336.1209
MEAN_ANOMALY   = 23.9161

EPHEMERIS_TYPE = 0
CLASSIFICATION_TYPE = U
NORAD_CAT_ID   = 66418
ELEMENT_SET_NO = 999
REV_AT_EPOCH   = 368
BSTAR          = .31844208E-3
MEAN_MOTION_DOT = .56E-5
MEAN_MOTION_DDOT = 0

CCSDS_OMM_VERS = 2.0
CREATION_DATE  = 
ORIGINATOR     = 

OBJECT_NAME    = HULIANWANG DIGUI 13H
OBJECT_ID      = 2025-258H
CENTER_NAME    = EARTH
REF_FRAME      = TEME
TIME_SYSTEM    = UTC
MEAN_ELEMENT_THEORY = SGP/SGP4

EPOCH          = 2025-12-05T14:43:51.252960
MEAN_MOTION    = 14.23328519
ECCENTRICITY   = .00120585
INCLINATION    = 50.0017
RA_OF_ASC_NODE = 291.9103
ARG_OF_PERICENTER = 334.7106
MEAN_ANOMALY   = 25.3215

EPHEMERIS_TYPE = 0
CLASSIFICATION_TYPE = U
NORAD_CAT_ID   = 66419
ELEMENT_SET_NO = 999
REV_AT_EPOCH   = 364
BSTAR          = .13377596E-3
MEAN_MOTION_DOT = .146E-5
MEAN_MOTION_DDOT = 0

CCSDS_OMM_VERS = 2.0
CREATION_DATE  = 
ORIGINATOR     = 

OBJECT_NAME    = HULIANWANG DIGUI 13J
OBJECT_ID      = 2025-258J
CENTER_NAME    = EARTH
REF_FRAME      = TEME
TIME_SYSTEM    = UTC
MEAN_ELEMENT_THEORY = SGP/SGP4

EPOCH          = 2025-12-05T23:07:39.042912
MEAN_MOTION    = 14.22956918
ECCENTRICITY   = .00133221
INCLINATION    = 50.0158
RA_OF_ASC_NODE = 290.4806
ARG_OF_PERICENTER = 343.9613
MEAN_ANOMALY   = 16.0876

EPHEMERIS_TYPE = 0
CLASSIFICATION_TYPE = U
NORAD_CAT_ID   = 66420
ELEMENT_SET_NO = 999
REV_AT_EPOCH   = 368
BSTAR          = .30678625E-3
MEAN_MOTION_DOT = .536E-5
MEAN_MOTION_DDOT = 0

CCSDS_OMM_VERS = 2.0
CREATION_DATE  = 
ORIGINATOR     = 

OBJECT_NAME    = CZ-12 R/B
OBJECT_ID      = 2025-258K
CENTER_NAME    = EARTH
REF_FRAME      = TEME
TIME_SYSTEM    = UTC
MEAN_ELEMENT_THEORY = SGP/SGP4

EPOCH          = 2025-12-05T22:19:20.878464
MEAN_MOTION    = 14.42319090
ECCENTRICITY   = .00645427
INCLINATION    = 49.9962
RA_OF_ASC_NODE = 287.4969
ARG_OF_PERICENTER = 224.9278
MEAN_ANOMALY   = 134.6409

EPHEMERIS_TYPE = 0
CLASSIFICATION_TYPE = U
NORAD_CAT_ID   = 66421
ELEMENT_SET_NO = 999
REV_AT_EPOCH   = 373
BSTAR          = .10835544E-3
MEAN_MOTION_DOT = .199E-5
MEAN_MOTION_DDOT = 0

CCSDS_OMM_VERS = 2.0
CREATION_DATE  = 
ORIGINATOR     = 

OBJECT_NAME    = STARLINK-35617
OBJECT_ID      = 2025-259A
CENTER_NAME    = EARTH
REF_FRAME      = TEME
TIME_SYSTEM    = UTC
MEAN_ELEMENT_THEORY = SGP/SGP4

EPOCH          = 2025-12-05T22:00:03.000096
MEAN_MOTION    = 15.40842513
ECCENTRICITY   = .0001509
INCLINATION    = 43.0009
RA_OF_ASC_NODE = 87.4240
ARG_OF_PERICENTER = 310.8309
MEAN_ANOMALY   = 263.7811

EPHEMERIS_TYPE = 0
CLASSIFICATION_TYPE = U
NORAD_CAT_ID   = 66422
ELEMENT_SET_NO = 999
REV_AT_EPOCH   = 518
BSTAR          = -.47492171E-2
MEAN_MOTION_DOT = -.194638E-2
MEAN_MOTION_DDOT = 0

CCSDS_OMM_VERS = 2.0
CREATION_DATE  = 
ORIGINATOR     = 

OBJECT_NAME    = STARLINK-35618
OBJECT_ID      = 2025-259B
CENTER_NAME    = EARTH
REF_FRAME      = TEME
TIME_SYSTEM    = UTC
MEAN_ELEMENT_THEORY = SGP/SGP4

EPOCH          = 2025-12-05T22:00:03.000096
MEAN_MOTION    = 15.40669676
ECCENTRICITY   = .00016426
INCLINATION    = 43.0009
RA_OF_ASC_NODE = 87.3930
ARG_OF_PERICENTER = 285.5668
MEAN_ANOMALY   = 301.6089

EPHEMERIS_TYPE = 0
CLASSIFICATION_TYPE = U
NORAD_CAT_ID   = 66423
ELEMENT_SET_NO = 999
REV_AT_EPOCH   = 518
BSTAR          = .75940871E-3
MEAN_MOTION_DOT = .31518E-3
MEAN_MOTION_DDOT = 0

CCSDS_OMM_VERS = 2.0
CREATION_DATE  = 
ORIGINATOR     = 

OBJECT_NAME    = STARLINK-35588
OBJECT_ID      = 2025-259C
CENTER_NAME    = EARTH
REF_FRAME      = TEME
TIME_SYSTEM    = UTC
MEAN_ELEMENT_THEORY = SGP/SGP4

EPOCH          = 2025-12-05T22:00:03.000096
MEAN_MOTION    = 15.40733840
ECCENTRICITY   = .00016042
INCLINATION    = 43.0007
RA_OF_ASC_NODE = 87.3627
ARG_OF_PERICENTER = 281.4025
MEAN_ANOMALY   = 318.2115

EPHEMERIS_TYPE = 0
CLASSIFICATION_TYPE = U
NORAD_CAT_ID   = 66424
ELEMENT_SET_NO = 999
REV_AT_EPOCH   = 518
BSTAR          = -.23783306E-2
MEAN_MOTION_DOT = -.98492E-3
MEAN_MOTION_DDOT = 0

CCSDS_OMM_VERS = 2.0
CREATION_DATE  = 
ORIGINATOR     = 

OBJECT_NAME    = STARLINK-35555
OBJECT_ID      = 2025-259D
CENTER_NAME    = EARTH
REF_FRAME      = TEME
TIME_SYSTEM    = UTC
MEAN_ELEMENT_THEORY = SGP/SGP4

EPOCH          = 2025-12-05T22:00:03.000096
MEAN_MOTION    = 15.40659268
ECCENTRICITY   = .00020687
INCLINATION    = 43.0009
RA_OF_ASC_NODE = 87.3302
ARG_OF_PERICENTER = 290.1661
MEAN_ANOMALY   = 321.9078

EPHEMERIS_TYPE = 0
CLASSIFICATION_TYPE = U
NORAD_CAT_ID   = 66425
ELEMENT_SET_NO = 999
REV_AT_EPOCH   = 518
BSTAR          = .85255428E-3
MEAN_MOTION_DOT = .35428E-3
MEAN_MOTION_DDOT = 0

CCSDS_OMM_VERS = 2.0
CREATION_DATE  = 
ORIGINATOR     = 

OBJECT_NAME    = STARLINK-35589
OBJECT_ID      = 2025-259E
CENTER_NAME    = EARTH
REF_FRAME      = TEME
TIME_SYSTEM    = UTC
MEAN_ELEMENT_THEORY = SGP/SGP4

EPOCH          = 2025-12-05T22:00:03.000096
MEAN_MOTION    = 15.41970193
ECCENTRICITY   = .00013315
INCLINATION    = 43.0006
RA_OF_ASC_NODE = 87.3042
ARG_OF_PERICENTER = 277.0086
MEAN_ANOMALY   = 346.8250

EPHEMERIS_TYPE = 0
CLASSIFICATION_TYPE = U
NORAD_CAT_ID   = 66426
ELEMENT_SET_NO = 999
REV_AT_EPOCH   = 518
BSTAR          = -.45954741E-1
MEAN_MOTION_DOT = -.1805234E-1
MEAN_MOTION_DDOT = 0

